IRNSS-1C                
1 40269U 14061A   24153.42750098 -.00000157  00000+0  00000+0 0  9995
2 40269   4.6321 105.1345 0021137   2.9639  19.2591  1.00272016 35218
GPS BIIF-8  (PRN 03)    
1 40294U 14068A   24153.05201216 -.00000067  00000+0  00000+0 0  9992
2 40294  56.4077  59.8698 0053382  61.5290 299.0215  2.00558581 70244
COSMOS 2501 (702K)      
1 40315U 14075A   24152.70919512  .00000036  00000+0  00000+0 0  9995
2 40315  63.6211 216.2494 0020552 209.9036 150.0488  2.13101406 73942
GPS BIIF-9  (PRN 26)    
1 40534U 15013A   24152.68548171 -.00000005  00000+0  00000+0 0  9994
2 40534  53.3487 235.0821 0087520  29.7552 330.7897  2.00566270 66851
GSAT0203 (PRN E26)      
1 40544U 15017A   24153.07820140 -.00000081  00000+0  00000+0 0  9996
2 40544  56.9237   1.9043 0001557 285.4004  74.6243  1.70475703 56482
GSAT0204 (PRN E22)      
1 40545U 15017B   24147.46652697 -.00000069  00000+0  00000+0 0  9999
2 40545  56.9294   2.0723 0001106 251.5082 108.5287  1.70475522 19431
IRNSS-1D                
1 40547U 15018A   24152.71770164 -.00000297  00000+0  00000+0 0  9999
2 40547  27.5191 252.9952 0022753 189.5071 177.5535  1.00276624 33503
BEIDOU-3S IGSO-1S (C31) 
1 40549U 15019A   24152.73648402 -.00000170  00000+0  00000+0 0  9993
2 40549  50.6051 304.3841 0038072 191.9737 110.1251  1.00253016 33589
GPS BIIF-10 (PRN 08)    
1 40730U 15033A   24153.34586023 -.00000063  00000+0  00000+0 0  9990
2 40730  54.6111 297.7006 0093966  19.6040 340.7377  2.00567702 65032
BEIDOU-3S M2S (C58)     
1 40748U 15037A   24152.95478344 -.00000068  00000+0  00000+0 0  9990
2 40748  55.4894 327.5849 0008045 250.4400 109.4755  1.86233009 60223
BEIDOU-3S M1S (C57)     
1 40749U 15037B   24150.00345950 -.00000054  00000+0  00000+0 0  9996
2 40749  55.4945 327.6721 0004000   3.7587 356.2479  1.86232857 60172
GSAT0205 (PRN E24)      
1 40889U 15045A   24148.99449293  .00000013  00000+0  00000+0 0  9994
2 40889  55.2266 242.3284 0003824  39.3375 320.7437  1.70474050 54226
GSAT0206 (PRN E30)      
1 40890U 15045B   24152.73461890 -.00000008  00000+0  00000+0 0  9995
2 40890  55.2238 242.2207 0002463  57.9793 302.0846  1.70473833 54314
BEIDOU-3S IGSO-2S (C56) 
1 40938U 15053A   24153.28680260 -.00000172  00000+0  00000+0 0  9994
2 40938  50.3826 267.5911 0052306 189.2972 352.6556  1.00265595 31879
GPS BIIF-11 (PRN 10)    
1 41019U 15062A   24152.90562150 -.00000066  00000+0  00000+0 0  9992
2 41019  56.3881  59.7284 0094913 225.1776 134.0630  2.00562335 62864
GSAT-15 (GAGAN/PRN 139) 
1 41028U 15065A   24153.55118972 -.00000254  00000+0  00000+0 0  9995
2 41028   0.0581 102.5068 0003625 333.3943 106.5430  1.00270559 31335
GSAT0209 (PRN E09)      
1 41174U 15079A   24153.49090435  .00000051  00000+0  00000+0 0  9992
2 41174  55.4192 121.7456 0005393 313.5231  46.3999  1.70474024 52061
GSAT0208 (PRN E08)      
1 41175U 15079B   24152.53748601  .00000057  00000+0  00000+0 0  9998
2 41175  55.4173 121.7697 0004827 310.5992  49.3296  1.70474000 52461
IRNSS-1E                
1 41241U 16003A   24152.68942579 -.00000297  00000+0  00000+0 0  9993
2 41241  31.5965  73.7268 0017444 182.8290 352.9927  1.00267716 30590
GPS BIIF-12 (PRN 32)    
1 41328U 16007A   24152.98622955  .00000061  00000+0  00000+0 0  9997
2 41328  55.1205 119.0942 0079793 238.8399 120.3551  2.00562597 60875
COSMOS 2514 (751)       
1 41330U 16008A   24153.16074926 -.00000038  00000+0  00000+0 0  9996
2 41330  65.4123 338.4875 0009127 200.2032 159.7841  2.13102630 64722
IRNSS-1F                
1 41384U 16015A   24153.56058726  .00000164  00000+0  00000+0 0  9996
2 41384   3.5353 118.2877 0017755 185.8173 180.7053  1.00268360 30196
BEIDOU-2 IGSO-6 (C13)   
1 41434U 16021A   24152.72920508 -.00000185  00000+0  00000+0 0  9996
2 41434  59.1531  45.5138 0047772 223.2980 339.4416  1.00273620 29991
IRNSS-1G                
1 41469U 16027A   24153.57985845 -.00000329  00000+0  00000+0 0  9999
2 41469   3.4070 119.5568 0005779 326.6473 142.6069  1.00275877 29707
GSAT0211 (PRN E02)      
1 41549U 16030A   24153.24690491 -.00000009  00000+0  00000+0 0  9991
2 41549  55.3748 242.2156 0004086  60.1461 299.9339  1.70474068 49953
GSAT0210 (PRN E01)      
1 41550U 16030B   24151.77843494 -.00000005  00000+0  00000+0 0  9998
2 41550  55.3716 242.2574 0002419 264.9939  95.0212  1.70473906 49928
BEIDOU-2 G7 (C03)       
1 41586U 16037A   24153.57611647 -.00000350  00000+0  00000+0 0  9990
2 41586   1.8703  69.4907 0009545   5.7982 133.1870  1.00268682 29315
E 117 W B (WAAS/PRN 131)
1 41589U 16038B   24151.02615691 -.00000007  00000+0  00000+0 0  9994
2 41589   0.0120 148.2510 0000296 190.4635 161.7436  1.00273166 29171
GSAT0207 (PRN E07)      
1 41859U 16069A   24148.50528970  .00000057  00000+0  00000+0 0  9994
2 41859  55.0821 121.8889 0005738 300.3113  59.5948  1.70474031 46604
GSAT0212 (PRN E03)      
1 41860U 16069B   24153.05227962  .00000054  00000+0  00000+0 0  9996
2 41860  55.0815 121.7594 0004219 322.1935  37.7465  1.70474142 46939
GSAT0213 (PRN E04)      
1 41861U 16069C   24150.48762562  .00000060  00000+0  00000+0 0  9998
2 41861  55.0825 121.8370 0005728 285.2929  74.6132  1.70472858 46889
GSAT0214 (PRN E05)      
1 41862U 16069D   24152.97944810  .00000054  00000+0  00000+0 0  9996
2 41862  55.0830 121.7618 0004684 289.2016  70.7175  1.70474211 46925
SES-15 (WAAS/PRN 133)   
1 42709U 17026A   24152.54355106  .00000063  00000+0  00000+0 0  9998
2 42709   0.0346  46.4857 0000339  31.5486 238.0206  1.00269351 26650
QZS-2 (QZSS/PRN 194)    
1 42738U 17028A   24153.58394851 -.00000203  00000+0  00000+0 0  9994
2 42738  40.5982 253.9859 0760607 269.0784  77.9728  1.00288348   146
QZS-3 (QZSS/PRN 199)    
1 42917U 17048A   24153.58104869 -.00000345  00000+0  00000+0 0  9990
2 42917   0.0577 175.8914 0002106 261.1629 149.6934  1.00268499 24781
COSMOS 2522 (752)       
1 42939U 17055A   24153.00125598  .00000036  00000+0  00000+0 0  9997
2 42939  64.0819 217.3206 0009461 239.1438 120.8327  2.13101808 52079
QZS-4 (QZSS/PRN 195)    
1 42965U 17062A   24153.43646432 -.00000337  00000+0  00000+0 0  9991
2 42965  40.5209 352.9867 0746722 271.2495 280.8534  1.00256815 24336
BEIDOU-3 M1 (C19)       
1 43001U 17069A   24152.22991254 -.00000005  00000+0  00000+0 0  9993
2 43001  56.0509  87.8240 0011441 307.0130  52.8624  1.86231222 44696
BEIDOU-3 M2 (C20)       
1 43002U 17069B   24152.70406513 -.00000010  00000+0  00000+0 0  9992
2 43002  56.0506  87.8442 0009554 328.7066  31.2148  1.86230900 44692
GSAT0215 (PRN E21)      
1 43055U 17079A   24152.29600571 -.00000007  00000+0  00000+0 0  9991
2 43055  55.3490 242.0642 0001995 251.2113 108.8084  1.70474671 40251
GSAT0216 (PRN E25)      
1 43056U 17079B   24151.41455980 -.00000003  00000+0  00000+0 0  9993
2 43056  55.3496 242.0884 0003253 267.6415  92.3657  1.70474747 40258
GSAT0217 (PRN E27)      
1 43057U 17079C   24153.39475326 -.00000009  00000+0  00000+0 0  9995
2 43057  55.3468 242.0326 0002570 286.0880  73.9235  1.70474736 40278
GSAT0218 (PRN E31)      
1 43058U 17079D   24151.26848636 -.00000002  00000+0  00000+0 0  9991
2 43058  55.3481 242.0887 0003449 264.6015  95.4042  1.70474673 40268
BEIDOU-3 M7 (C27)       
1 43107U 18003A   24153.52726239 -.00000074  00000+0  00000+0 0  9998
2 43107  54.9468 328.1631 0004962  74.0783 285.9783  1.86232357 43463
BEIDOU-3 M8 (C28)       
1 43108U 18003B   24152.93061062 -.00000070  00000+0  00000+0 0  9995
2 43108  54.9404 328.1694 0002435 258.1325 101.8433  1.86230811 43464
BEIDOU-3 M4 (C22)       
1 43207U 18018A   24152.29798754 -.00000005  00000+0  00000+0 0  9993
2 43207  56.0098  87.9114 0007107 351.1013   8.8656  1.86231140 42831
BEIDOU-3 M3 (C21)       
1 43208U 18018B   24152.90151754 -.00000013  00000+0  00000+0 0  9994
2 43208  56.0096  87.8957 0009325 318.8668  41.0404  1.86231062 42848
BEIDOU-3 M9 (C29)       
1 43245U 18029A   24153.12292692 -.00000071  00000+0  00000+0 0  9993
2 43245  54.8311 325.8865 0000489 107.2846 252.7209  1.86232359 42000
BEIDOU-3 M10 (C30)      
1 43246U 18029B   24153.05262734 -.00000070  00000+0  00000+0 0  9999
2 43246  54.8283 325.9169 0003961  22.3710 337.6466  1.86232804 41981
IRNSS-1I                
1 43286U 18035A   24148.90257771  .00000093  00000+0  00000+0 0  9997
2 43286  29.0647  85.9512 0018269 185.2051 354.7425  1.00275341 22547
COSMOS 2527 (756)       
1 43508U 18053A   24152.96019762  .00000022  00000+0  00000+0 0  9993
2 43508  65.1985  98.8723 0008665 243.0007 116.8916  2.13102228 46377
BEIDOU-2 IGSO-7 (C16)   
1 43539U 18057A   24153.45951704 -.00000047  00000+0  00000+0 0  9995
2 43539  55.1402 169.5051 0075421 233.4735 124.5009  1.00257305 21654
GSAT0221 (PRN E15)      
1 43564U 18060A   24152.92893743 -.00000080  00000+0  00000+0 0  9993
2 43564  57.3037   1.9046 0002562 312.6031  47.4175  1.70475564 36444
GSAT0222 (PRN E33)      
1 43565U 18060B   24153.14740911 -.00000080  00000+0  00000+0 0  9997
2 43565  57.3074   1.9006 0001912 253.3480 106.6733  1.70475281 36498
GSAT0219 (PRN E36)      
1 43566U 18060C   24153.36934076 -.00000081  00000+0  00000+0 0  9990
2 43566  57.3066   1.8965 0002239 334.1180  25.9131  1.70475587 36473
GSAT0220 (PRN E13)      
1 43567U 18060D   24150.07043799 -.00000072  00000+0  00000+0 0  9999
2 43567  57.3059   1.9858 0002018 337.7157  22.3190  1.70475320 36400
BEIDOU-3 M5 (C23)       
1 43581U 18062A   24150.05372003  .00000044  00000+0  00000+0 0  9996
2 43581  54.1336 207.7861 0004693 273.1379  86.8884  1.86228547 39681
BEIDOU-3 M6 (C24)       
1 43582U 18062B   24152.06748603  .00000047  00000+0  00000+0 0  9996
2 43582  54.1332 207.7068 0004018   4.3604 355.7186  1.86229302 39721
BEIDOU-3 M12 (C26)      
1 43602U 18067A   24153.07491034  .00000058  00000+0  00000+0 0  9991
2 43602  54.2236 206.3523 0006672  19.3810 340.7217  1.86231625 39227
BEIDOU-3 M11 (C25)      
1 43603U 18067B   24152.13494900  .00000051  00000+0  00000+0 0  9996
2 43603  54.2206 206.3494 0003604   3.4953 356.5831  1.86231513 39230
